$$SOE
2460728.500000000, A.D. 2025-Feb-22 00:00:00.0000, -2.566781229861596E+08, -3.928601325731021E+08, 8.911496910743260E+07,
2460735.500000000, A.D. 2025-Mar-01 00:00:00.0000, -2.482768479696310E+08, -3.980479732498648E+08, 8.690813310311601E+07,
2460742.500000000, A.D. 2025-Mar-08 00:00:00.0000, -2.397645975260314E+08, -4.030579630979570E+08, 8.466245143100907E+07,
2460749.500000000, A.D. 2025-Mar-15 00:00:00.0000, -2.311447996858739E+08, -4.078872345017992E+08, 8.237879599635714E+07,
2460756.500000000, A.D. 2025-Mar-22 00:00:00.0000, -2.224209576212320E+08, -4.125329819191130E+08, 8.005806270682049E+07,
2460763.500000000, A.D. 2025-Mar-29 00:00:00.0000, -2.135966496829090E+08, -4.169924660663643E+08, 7.770117126390679E+07,
2460770.500000000, A.D. 2025-Apr-05 00:00:00.0000, -2.046755276679724E+08, -4.212630172337493E+08, 7.530906485148834E+07,
2460777.500000000, A.D. 2025-Apr-12 00:00:00.0000, -1.956613152426663E+08, -4.253420376231865E+08, 7.288270990590121E+07,
2460784.500000000, A.D. 2025-Apr-19 00:00:00.0000, -1.865578067067849E+08, -4.292270035872776E+08, 7.042309591186488E+07,
2460791.500000000, A.D. 2025-Apr-26 00:00:00.0000, -1.773688658266204E+08, -4.329154679683253E+08, 6.793123518165009E+07,
2460798.500000000, A.D. 2025-May-03 00:00:00.0000, -1.680984246213837E+08, -4.364050625138707E+08, 6.540816260749167E+07,
2460805.500000000, A.D. 2025-May-10 00:00:00.0000, -1.587504820728033E+08, -4.396935003555060E+08, 6.285493538420668E+07,
2460812.500000000, A.D. 2025-May-17 00:00:00.0000, -1.493291027191523E+08, -4.427785785875156E+08, 6.027263269429594E+07,
2460819.500000000, A.D. 2025-May-24 00:00:00.0000, -1.398384149576292E+08, -4.456581809958984E+08, 5.766235533438285E+07,
2460826.500000000, A.D. 2025-May-31 00:00:00.0000, -1.302826086355930E+08, -4.483302806236442E+08, 5.502522526968423E+07,
2460833.500000000, A.D. 2025-Jun-07 00:00:00.0000, -1.206659323307253E+08, -4.507929409644263E+08, 5.236238525156324E+07,
2460840.500000000, A.D. 2025-Jun-14 00:00:00.0000, -1.109926926841676E+08, -4.530443164476016E+08, 4.967499866026056E+07,
2460847.500000000, A.D. 2025-Jun-21 00:00:00.0000, -1.012672545689721E+08, -4.550826554816281E+08, 4.696424919350648E+07,
2460854.500000000, A.D. 2025-Jun-28 00:00:00.0000, -9.149403896501015E+07, -4.569063042879063E+08, 4.423134025824916E+07,
2460861.500000000, A.D. 2025-Jul-05 00:00:00.0000, -8.167752005704309E+07, -4.585137093651457E+08, 4.147749438092880E+07,
2460868.500000000, A.D. 2025-Jul-12 00:00:00.0000, -7.182222274707603E+07, -4.599034193854106E+08, 3.870395267971134E+07,
2460875.500000000, A.D. 2025-Jul-19 00:00:00.0000, -6.193272039163099E+07, -4.610740870924066E+08, 3.591197433423305E+07,
2460882.500000000, A.D. 2025-Jul-26 00:00:00.0000, -5.201363255434981E+07, -4.620244712538591E+08, 3.310283602889308E+07,
2460889.500000000, A.D. 2025-Aug-02 00:00:00.0000, -4.206962270887896E+07, -4.627534386415260E+08, 3.027783136540395E+07,
2460896.500000000, A.D. 2025-Aug-09 00:00:00.0000, -3.210539586902171E+07, -4.632599660488647E+08, 2.743827024133250E+07,
2460903.500000000, A.D. 2025-Aug-16 00:00:00.0000, -2.212569606997482E+07, -4.635431424052306E+08, 2.458547818266344E+07,
2460910.500000000, A.D. 2025-Aug-23 00:00:00.0000, -1.213530340928315E+07, -4.636021709657934E+08, 2.172079560528415E+07,
2460917.500000000, A.D. 2025-Aug-30 00:00:00.0000, -2.139030320246843E+06, -4.634363708586211E+08, 1.884557703401044E+07,
2460924.500000000, A.D. 2025-Sep-06 00:00:00.0000, 7.858281502106437E+06, -4.630451769835815E+08, 1.596119049141365E+07,
2460931.500000000, A.D. 2025-Sep-13 00:00:00.0000, 1.785176184995871E+07, -4.624281407399832E+08, 1.306901700716749E+07,
2460938.500000000, A.D. 2025-Sep-20 00:00:00.0000, 2.783651369856114E+07, -4.615849332219919E+08, 1.017044981380737E+07,
2460945.500000000, A.D. 2025-Sep-27 00:00:00.0000, 3.780761690589698E+07, -4.605153477663846E+08, 7.266893386850208E+06,
2460952.500000000, A.D. 2025-Oct-04 00:00:00.0000, 4.776013189689806E+07, -4.592193013095461E+08, 4.359762559123576E+06,
2460959.500000000, A.D. 2025-Oct-11 00:00:00.0000, 5.768910295563763E+07, -4.576968354922618E+08, 1.450481667253077E+06,
2460966.500000000, A.D. 2025-Oct-18 00:00:00.0000, 6.758956140602538E+07, -4.559481177820455E+08, -1.459516317426622E+06,
2460973.500000000, A.D. 2025-Oct-25 00:00:00.0000, 7.745652881715211E+07, -4.539734425971255E+08, -4.368790684746683E+06,
2460980.500000000, A.D. 2025-Nov-01 00:00:00.0000, 8.728502026928972E+07, -4.517732324115511E+08, -7.275893910042137E+06,
2460987.500000000, A.D. 2025-Nov-08 00:00:00.0000, 9.707004771182078E+07, -4.493480388680414E+08, -1.017937261197826E+07,
2460994.500000000, A.D. 2025-Nov-15 00:00:00.0000, 1.068066235576468E+08, -4.466985439531121E+08, -1.307776856142098E+07,
2461001.500000000, A.D. 2025-Nov-22 00:00:00.0000, 1.164897649129732E+08, -4.438255610111563E+08, -1.596961975943273E+07,
2461008.500000000, A.D. 2025-Nov-29 00:00:00.0000, 1.261144982847620E+08, -4.407300344595412E+08, -1.885346147667721E+07,
2461015.500000000, A.D. 2025-Dec-06 00:00:00.0000, 1.356758624832820E+08, -4.374130383371886E+08, -2.172782705552536E+07,
2461022.500000000, A.D. 2025-Dec-13 00:00:00.0000, 1.451689101484208E+08, -4.338757770524980E+08, -2.459124878908259E+07,
2461029.500000000, A.D. 2025-Dec-20 00:00:00.0000, 1.545887113886539E+08, -4.301195873040473E+08, -2.744225911284003E+07,
2461036.500000000, A.D. 2025-Dec-27 00:00:00.0000, 1.639303584540784E+08, -4.261459385809352E+08, -3.027939179749185E+07,
2461043.500000000, A.D. 2026-Jan-03 00:00:00.0000, 1.731889699782873E+08, -4.219564328562719E+08, -3.310118305803970E+07,
2461050.500000000, A.D. 2026-Jan-10 00:00:00.0000, 1.823596948920871E+08, -4.175528041496511E+08, -3.590617264318877E+07,
2461057.500000000, A.D. 2026-Jan-17 00:00:00.0000, 1.914377162346562E+08, -4.129369180461623E+08, -3.869290493207008E+07,
2461064.500000000, A.D. 2026-Jan-24 00:00:00.0000, 2.004182549335911E+08, -4.081107711446756E+08, -4.145993004159227E+07,
2461071.500000000, A.D. 2026-Jan-31 00:00:00.0000, 2.092965735718496E+08, -4.030764904384476E+08, -4.420580494514036E+07,
2461078.500000000, A.D. 2026-Feb-07 00:00:00.0000, 2.180679801988139E+08, -3.978363326824346E+08, -4.692909461103085E+07,
2461085.500000000, A.D. 2026-Feb-14 00:00:00.0000, 2.267278324346949E+08, -3.923926837619344E+08, -4.962837318350545E+07,
2461092.500000000, A.D. 2026-Feb-21 00:00:00.0000, 2.352715422512262E+08, -3.867480574869721E+08, -5.230222519314447E+07,
2461099.500000000, A.D. 2026-Feb-28 00:00:00.0000, 2.436945803375364E+08, -3.809050926611050E+08, -5.494924660141303E+07,
2461106.500000000, A.D. 2026-Mar-07 00:00:00.0000, 2.519924779848061E+08, -3.748665503754146E+08, -5.756804564810497E+07,
2461113.500000000, A.D. 2026-Mar-14 00:00:00.0000, 2.601608292577649E+08, -3.686353138595124E+08, -6.015724394485883E+07,
2461120.500000000, A.D. 2026-Mar-21 00:00:00.0000, 2.681952952297616E+08, -3.622143879914966E+08, -6.271547773943123E+07,
2461127.500000000, A.D. 2026-Mar-28 00:00:00.0000, 2.760916082661956E+08, -3.556068974396411E+08, -6.524139908044003E+07,
2461134.500000000, A.D. 2026-Apr-04 00:00:00.0000, 2.838455757464564E+08, -3.488160844032455E+08, -6.773367690414342E+07,
2461141.500000000, A.D. 2026-Apr-11 00:00:00.0000, 2.914530834921632E+08, -3.418453063145191E+08, -7.019099809577101E+07,
2461148.500000000, A.D. 2026-Apr-18 00:00:00.0000, 2.989100990550594E+08, -3.346980335105153E+08, -7.261206853854863E+07,
2461155.500000000, A.D. 2026-Apr-25 00:00:00.0000, 3.062126749045380E+08, -3.273778468631299E+08, -7.499561415140384E+07,
2461162.500000000, A.D. 2026-May-02 00:00:00.0000, 3.133569515395534E+08, -3.198884353996077E+08, -7.734038191852517E+07,
2461169.500000000, A.D. 2026-May-09 00:00:00.0000, 3.203391606437761E+08, -3.122335939823852E+08, -7.964514092549931E+07,
2461176.500000000, A.D. 2026-May-16 00:00:00.0000, 3.271556286571594E+08, -3.044172209127368E+08, -8.190868342341958E+07,
2461183.500000000, A.D. 2026-May-23 00:00:00.0000, 3.338027808120059E+08, -2.964433144401148E+08, -8.412982584062909E+07,
2461190.500000000, A.D. 2026-May-30 00:00:00.0000, 3.402771435508454E+08, -2.883159678633697E+08, -8.630740952406843E+07,
2461197.500000000, A.D. 2026-Jun-06 00:00:00.0000, 3.465753450028985E+08, -2.800393665023487E+08, -8.844030144705541E+07,
2461204.500000000, A.D. 2026-Jun-13 00:00:00.0000, 3.526941171794020E+08, -2.716177863443897E+08, -9.052739520169277E+07,
2461211.500000000, A.D. 2026-Jun-20 00:00:00.0000, 3.586302993828597E+08, -2.630555914439445E+08, -9.256761198950773E+07,
2461218.500000000, A.D. 2026-Jun-27 00:00:00.0000, 3.643808411284320E+08, -2.543572304207733E+08, -9.455990148135510E+07,
2461225.500000000, A.D. 2026-Jul-04 00:00:00.0000, 3.699428045737856E+08, -2.455272328373854E+08, -9.650324260898952E+07,
2461232.500000000, A.D. 2026-Jul-11 00:00:00.0000, 3.753133667079315E+08, -2.365702055934420E+08, -9.839664432151712E+07,
2461239.500000000, A.D. 2026-Jul-18 00:00:00.0000, 3.804898213886982E+08, -2.274908293173964E+08, -1.002391463123734E+08,
2461246.500000000, A.D. 2026-Jul-25 00:00:00.0000, 3.854695812504410E+08, -2.182938547589743E+08, -1.020298197181629E+08,
2461253.500000000, A.D. 2026-Aug-01 00:00:00.0000, 3.902501795271315E+08, -2.089840992371115E+08, -1.037677677969667E+08,
2461260.500000000, A.D. 2026-Aug-08 00:00:00.0000, 3.948292720025550E+08, -1.995664431853407E+08, -1.054521266077935E+08,
2461267.500000000, A.D. 2026-Aug-15 00:00:00.0000, 3.992046395003101E+08, -1.900458263496984E+08, -1.070820656914565E+08,
2461274.500000000, A.D. 2026-Aug-22 00:00:00.0000, 4.033741901521916E+08, -1.804272424240910E+08, -1.086567885829005E+08,
2461281.500000000, A.D. 2026-Aug-29 00:00:00.0000, 4.073359591556385E+08, -1.707157335039181E+08, -1.101755330571904E+08,
2461288.500000000, A.D. 2026-Sep-05 00:00:00.0000, 4.110881081514065E+08, -1.609163872335272E+08, -1.116375715384120E+08,
$$EOE